{
  "type": "FeatureCollection",
  "features": [
    {
      "type": "Feature",
      "properties": {
        "norad_id": 34760,
        "name": "COSMOS 2251 DEB",
        "group": "cosmos-2251-debris",
        "lat": -38.249246157468484,
        "lon": 150.69286492302018,
        "alt_km": 893.9736724980103,
        "timestamp": "2025-12-04T03:47:54.937184+00:00",
        "meta_object_name": "COSMOS 2251 DEB",
        "meta_object_id": "1993-036AAE",
        "meta_epoch": "2025-12-02T15:48:08.179200",
        "meta_mean_motion": 14.19524364,
        "meta_eccentricity": 0.00962533,
        "meta_inclination": 74.0627,
        "meta_ra_of_asc_node": 320.3503,
        "meta_arg_of_pericenter": 14.8263,
        "meta_mean_anomaly": 104.0636,
        "meta_ephemeris_type": 0,
        "meta_classification_type": "U",
        "meta_norad_cat_id": 34760,
        "meta_element_set_no": 999,
        "meta_rev_at_epoch": 86545,
        "meta_bstar": 0.00087310198,
        "meta_mean_motion_dot": 1.903e-05,
        "meta_mean_motion_ddot": 0,
        "tle_line1": "1 34760U 93036AAE 25336.65842800  .00001903  00000+0  87310-3 0  9997",
        "tle_line2": "2 34760  74.0627 320.3503 0096253  14.8263 104.0636 14.19524364865450"
      },
      "geometry": {
        "type": "Point",
        "coordinates": [
          150.69286492302018,
          -38.249246157468484
        ]
      }
    },
    {
      "type": "Feature",
      "properties": {
        "norad_id": 34761,
        "name": "COSMOS 2251 DEB",
        "group": "cosmos-2251-debris",
        "lat": -64.73514902084553,
        "lon": -18.749879697626877,
        "alt_km": 786.944586051467,
        "timestamp": "2025-12-04T03:47:54.937194+00:00",
        "meta_object_name": "COSMOS 2251 DEB",
        "meta_object_id": "1993-036AAF",
        "meta_epoch": "2025-12-03T11:25:40.179072",
        "meta_mean_motion": 14.37997313,
        "meta_eccentricity": 0.0036092,
        "meta_inclination": 74.03,
        "meta_ra_of_asc_node": 19.8628,
        "meta_arg_of_pericenter": 56.9515,
        "meta_mean_anomaly": 303.5096,
        "meta_ephemeris_type": 0,
        "meta_classification_type": "U",
        "meta_norad_cat_id": 34761,
        "meta_element_set_no": 999,
        "meta_rev_at_epoch": 87516,
        "meta_bstar": 0.00082876,
        "meta_mean_motion_dot": 2.5e-05,
        "meta_mean_motion_ddot": 0,
        "tle_line1": "1 34761U 93036AAF 25337.47615948  .00002500  00000+0  82876-3 0  9996",
        "tle_line2": "2 34761  74.0300  19.8628 0036092  56.9515 303.5096 14.37997313875162"
      },
      "geometry": {
        "type": "Point",
        "coordinates": [
          -18.749879697626877,
          -64.73514902084553
        ]
      }
    },
    {
      "type": "Feature",
      "properties": {
        "norad_id": 34784,
        "name": "COSMOS 2251 DEB",
        "group": "cosmos-2251-debris",
        "lat": -0.24886894048360433,
        "lon": 160.85376291811886,
        "alt_km": 662.2729949711347,
        "timestamp": "2025-12-04T03:47:54.937204+00:00",
        "meta_object_name": "COSMOS 2251 DEB",
        "meta_object_id": "1993-036AAM",
        "meta_epoch": "2025-12-03T10:32:30.704928",
        "meta_mean_motion": 14.60709262,
        "meta_eccentricity": 0.0049778,
        "meta_inclination": 74.0068,
        "meta_ra_of_asc_node": 342.1579,
        "meta_arg_of_pericenter": 154.2454,
        "meta_mean_anomaly": 206.1207,
        "meta_ephemeris_type": 0,
        "meta_classification_type": "U",
        "meta_norad_cat_id": 34784,
        "meta_element_set_no": 999,
        "meta_rev_at_epoch": 88399,
        "meta_bstar": 0.00066781,
        "meta_mean_motion_dot": 3.283e-05,
        "meta_mean_motion_ddot": 0,
        "tle_line1": "1 34784U 93036AAM 25337.43924427  .00003283  00000+0  66781-3 0  9998",
        "tle_line2": "2 34784  74.0068 342.1579 0049778 154.2454 206.1207 14.60709262883996"
      },
      "geometry": {
        "type": "Point",
        "coordinates": [
          160.85376291811886,
          -0.24886894048360433
        ]
      }
    },
    {
      "type": "Feature",
      "properties": {
        "norad_id": 34790,
        "name": "COSMOS 2251 DEB",
        "group": "cosmos-2251-debris",
        "lat": -17.39904936775429,
        "lon": -105.98301615685034,
        "alt_km": 746.1377351229048,
        "timestamp": "2025-12-04T03:47:54.937214+00:00",
        "meta_object_name": "COSMOS 2251 DEB",
        "meta_object_id": "1993-036AAT",
        "meta_epoch": "2025-12-02T20:07:24.488832",
        "meta_mean_motion": 14.2457003,
        "meta_eccentricity": 0.01006839,
        "meta_inclination": 74.0549,
        "meta_ra_of_asc_node": 261.5318,
        "meta_arg_of_pericenter": 325.2539,
        "meta_mean_anomaly": 90.5192,
        "meta_ephemeris_type": 0,
        "meta_classification_type": "U",
        "meta_norad_cat_id": 34790,
        "meta_element_set_no": 999,
        "meta_rev_at_epoch": 86432,
        "meta_bstar": 0.0013780227,
        "meta_mean_motion_dot": 3.347e-05,
        "meta_mean_motion_ddot": 0,
        "tle_line1": "1 34790U 93036AAT 25336.83847788  .00003347  00000+0  13780-2 0  9993",
        "tle_line2": "2 34790  74.0549 261.5318 0100683 325.2539  90.5192 14.24570030864322"
      },
      "geometry": {
        "type": "Point",
        "coordinates": [
          -105.98301615685034,
          -17.39904936775429
        ]
      }
    },
    {
      "type": "Feature",
      "properties": {
        "norad_id": 34792,
        "name": "COSMOS 2251 DEB",
        "group": "cosmos-2251-debris",
        "lat": 41.92056535440589,
        "lon": -159.0937784290035,
        "alt_km": 707.9342310497859,
        "timestamp": "2025-12-04T03:47:54.937224+00:00",
        "meta_object_name": "COSMOS 2251 DEB",
        "meta_object_id": "1993-036AAV",
        "meta_epoch": "2025-12-03T18:16:07.387104",
        "meta_mean_motion": 14.55837126,
        "meta_eccentricity": 0.0012587,
        "meta_inclination": 74.0178,
        "meta_ra_of_asc_node": 186.7474,
        "meta_arg_of_pericenter": 280.4071,
        "meta_mean_anomaly": 203.3349,
        "meta_ephemeris_type": 0,
        "meta_classification_type": "U",
        "meta_norad_cat_id": 34792,
        "meta_element_set_no": 999,
        "meta_rev_at_epoch": 87519,
        "meta_bstar": 0.0012851,
        "meta_mean_motion_dot": 5.617e-05,
        "meta_mean_motion_ddot": 0,
        "tle_line1": "1 34792U 93036AAV 25337.76119661  .00005617  00000+0  12851-2 0  9990",
        "tle_line2": "2 34792  74.0178 186.7474 0012587 280.4071 203.3349 14.55837126875192"
      },
      "geometry": {
        "type": "Point",
        "coordinates": [
          -159.0937784290035,
          41.92056535440589
        ]
      }
    },
    {
      "type": "Feature",
      "properties": {
        "norad_id": 34793,
        "name": "COSMOS 2251 DEB",
        "group": "cosmos-2251-debris",
        "lat": -4.931766711115608,
        "lon": -95.19785069906361,
        "alt_km": 752.6041800254707,
        "timestamp": "2025-12-04T03:47:54.937234+00:00",
        "meta_object_name": "COSMOS 2251 DEB",
        "meta_object_id": "1993-036AAW",
        "meta_epoch": "2025-12-03T05:02:37.810176",
        "meta_mean_motion": 14.38617586,
        "meta_eccentricity": 0.0049962,
        "meta_inclination": 74.0027,
        "meta_ra_of_asc_node": 267.9715,
        "meta_arg_of_pericenter": 64.663,
        "meta_mean_anomaly": 62.5123,
        "meta_ephemeris_type": 0,
        "meta_classification_type": "U",
        "meta_norad_cat_id": 34793,
        "meta_element_set_no": 999,
        "meta_rev_at_epoch": 87193,
        "meta_bstar": 0.00040338,
        "meta_mean_motion_dot": 1.227e-05,
        "meta_mean_motion_ddot": 0,
        "tle_line1": "1 34793U 93036AAW 25337.21015984  .00001227  00000+0  40338-3 0  9999",
        "tle_line2": "2 34793  74.0027 267.9715 0049962  64.6630  62.5123 14.38617586871936"
      },
      "geometry": {
        "type": "Point",
        "coordinates": [
          -95.19785069906361,
          -4.931766711115608
        ]
      }
    },
    {
      "type": "Feature",
      "properties": {
        "norad_id": 34796,
        "name": "COSMOS 2251 DEB",
        "group": "cosmos-2251-debris",
        "lat": 37.55343025821981,
        "lon": 39.71419980676129,
        "alt_km": 795.5349341625852,
        "timestamp": "2025-12-04T03:47:54.937244+00:00",
        "meta_object_name": "COSMOS 2251 DEB",
        "meta_object_id": "1993-036AAZ",
        "meta_epoch": "2025-12-03T19:09:30.718080",
        "meta_mean_motion": 14.48608984,
        "meta_eccentricity": 0.0100115,
        "meta_inclination": 74.031,
        "meta_ra_of_asc_node": 233.1064,
        "meta_arg_of_pericenter": 337.1333,
        "meta_mean_anomaly": 86.4739,
        "meta_ephemeris_type": 0,
        "meta_classification_type": "U",
        "meta_norad_cat_id": 34796,
        "meta_element_set_no": 999,
        "meta_rev_at_epoch": 87898,
        "meta_bstar": 0.0011715,
        "meta_mean_motion_dot": 4.668e-05,
        "meta_mean_motion_ddot": 0,
        "tle_line1": "1 34796U 93036AAZ 25337.79827220  .00004668  00000+0  11715-2 0  9997",
        "tle_line2": "2 34796  74.0310 233.1064 0100115 337.1333  86.4739 14.48608984878985"
      },
      "geometry": {
        "type": "Point",
        "coordinates": [
          39.71419980676129,
          37.55343025821981
        ]
      }
    }
  ]
}